[{"OBJECT_NAME":"EYESAT A (AO-27)","OBJECT_ID":"1993-061C","EPOCH":"2026-03-09T16:58:07.157856","MEAN_MOTION":14.30913089,"ECCENTRICITY":0.00089503,"INCLINATION":98.6982,"RA_OF_ASC_NODE":136.1171,"ARG_OF_PERICENTER":38.8989,"MEAN_ANOMALY":321.2837,"EPHEMERIS_TYPE":0,"CLASSIFICATION_TYPE":"U","NORAD_CAT_ID":22825,"ELEMENT_SET_NO":999,"REV_AT_EPOCH":69277,"BSTAR":7.1797441e-5,"MEAN_MOTION_DOT":1.44e-6,"MEAN_MOTION_DDOT":0},{"OBJECT_NAME":"FENGYUN 1C DEB","OBJECT_ID":"1999-025EYY","EPOCH":"2026-03-09T04:22:06.064896","MEAN_MOTION":14.11508295,"ECCENTRICITY":0.00993644,"INCLINATION":99.2042,"RA_OF_ASC_NODE":142.2811,"ARG_OF_PERICENTER":115.2655,"MEAN_ANOMALY":271.8191,"EPHEMERIS_TYPE":0,"CLASSIFICATION_TYPE":"U","NORAD_CAT_ID":46443,"ELEMENT_SET_NO":999,"REV_AT_EPOCH":60815,"BSTAR":0.001774949,"MEAN_MOTION_DOT":3.328e-5,"MEAN_MOTION_DDOT":0}]
